STARLINK-2426           
1 47836U 21018BB  26068.73125604  .00005782  00000+0  20717-3 0  9991
2 47836  53.1591 244.8074 0001254  73.0469 287.0670 15.30201942276703
TOMORROW-S1             
1 60479U 24149M   26068.72470524  .00008620  00000+0  28856-3 0  9996
2 60479  97.3791 149.6044 0001819 207.2040 152.9106 15.31198362 86867
